$$SOE
2459580.500000000, A.D. 2022-Jan-01 00:00:00.0000, 2.477436026050955E+08, -2.666191090105334E+07, 2.611191280500298E+06,
2459587.500000000, A.D. 2022-Jan-08 00:00:00.0000, 2.501807586306393E+08, -1.149938544648455E+07, 2.471469513312337E+06,
2459594.500000000, A.D. 2022-Jan-15 00:00:00.0000, 2.518452877048077E+08, 3.698709311696961E+06, 2.324108617348337E+06,
2459601.500000000, A.D. 2022-Jan-22 00:00:00.0000, 2.527451665242537E+08, 1.888563391861342E+07, 2.169684471348144E+06,
2459608.500000000, A.D. 2022-Jan-29 00:00:00.0000, 2.528918683790660E+08, 3.401634486163764E+07, 2.008787751144284E+06,
2459615.500000000, A.D. 2022-Feb-05 00:00:00.0000, 2.523000552246127E+08, 4.904779044166049E+07, 1.842018023232751E+06,
2459622.500000000, A.D. 2022-Feb-12 00:00:00.0000, 2.509872491721423E+08, 6.393915143541871E+07, 1.669977919305649E+06,
2459629.500000000, A.D. 2022-Feb-19 00:00:00.0000, 2.489734919251722E+08, 7.865202894560641E+07, 1.493267799215537E+06,
2459636.500000000, A.D. 2022-Feb-26 00:00:00.0000, 2.462809999043449E+08, 9.315058048034105E+07, 1.312481030305691E+06,
2459643.500000000, A.D. 2022-Mar-05 00:00:00.0000, 2.429338231967366E+08, 1.074016068170873E+08, 1.128199859046549E+06,
2459650.500000000, A.D. 2022-Mar-12 00:00:00.0000, 2.389575152847149E+08, 1.213745938160988E+08, 9.409918669112176E+05,
2459657.500000000, A.D. 2022-Mar-19 00:00:00.0000, 2.343788190466187E+08, 1.350417141570778E+08, 7.514070038595870E+05,
2459664.500000000, A.D. 2022-Mar-26 00:00:00.0000, 2.292253731720920E+08, 1.483777943371183E+08, 5.599751780505776E+05,
2459671.500000000, A.D. 2022-Apr-02 00:00:00.0000, 2.235254419537895E+08, 1.613602523423231E+08, 3.672043594518155E+05,
2459678.500000000, A.D. 2022-Apr-09 00:00:00.0000, 2.173076705156705E+08, 1.739690113654532E+08, 1.735791319084540E+05,
2459685.500000000, A.D. 2022-Apr-16 00:00:00.0000, 2.106008666629345E+08, 1.861863953094393E+08, -2.044033367890120E+04,
2459692.500000000, A.D. 2022-Apr-23 00:00:00.0000, 2.034338080911184E+08, 1.979970118353142E+08, -2.144187315614522E+05,
2459699.500000000, A.D. 2022-Apr-30 00:00:00.0000, 1.958350724392509E+08, 2.093876249274112E+08, -4.079455593887419E+05,
2459706.500000000, A.D. 2022-May-07 00:00:00.0000, 1.878328921448162E+08, 2.203470187100421E+08, -6.006350342004448E+05,
2459713.500000000, A.D. 2022-May-14 00:00:00.0000, 1.794550340163808E+08, 2.308658587047594E+08, -7.921259152411371E+05,
2459720.500000000, A.D. 2022-May-21 00:00:00.0000, 1.707286997652564E+08, 2.409365539246221E+08, -9.820810299009979E+05,
2459727.500000000, A.D. 2022-May-28 00:00:00.0000, 1.616804451593813E+08, 2.505531210065027E+08, -1.170186577309757E+06,
2459734.500000000, A.D. 2022-Jun-04 00:00:00.0000, 1.523361161676942E+08, 2.597110517840576E+08, -1.356151296717077E+06,
2459741.500000000, A.D. 2022-Jun-11 00:00:00.0000, 1.427208003412826E+08, 2.684071856214974E+08, -1.539705545653164E+06,
2459748.500000000, A.D. 2022-Jun-18 00:00:00.0000, 1.328587916304536E+08, 2.766395874927716E+08, -1.720600317941427E+06,
2459755.500000000, A.D. 2022-Jun-25 00:00:00.0000, 1.227735669215420E+08, 2.844074324480439E+08, -1.898606230451614E+06,
2459762.500000000, A.D. 2022-Jul-02 00:00:00.0000, 1.124877727992826E+08, 2.917108968287842E+08, -2.073512515885338E+06,
2459769.500000000, A.D. 2022-Jul-09 00:00:00.0000, 1.020232214291254E+08, 2.985510566333157E+08, -2.245126059172109E+06,
2459776.500000000, A.D. 2022-Jul-16 00:00:00.0000, 9.140089415154304E+07, 3.049297941774994E+08, -2.413270397809103E+06,
2459783.500000000, A.D. 2022-Jul-23 00:00:00.0000, 8.064094937999803E+07, 3.108497130474765E+08, -2.577784489751831E+06,
2459790.500000000, A.D. 2022-Jul-30 00:00:00.0000, 6.976273380016400E+07, 3.163140578009768E+08, -2.738521537893414E+06,
2459797.500000000, A.D. 2022-Aug-06 00:00:00.0000, 5.878479951574615E+07, 3.213266388179017E+08, -2.895348154198334E+06,
2459804.500000000, A.D. 2022-Aug-13 00:00:00.0000, 4.772492549150462E+07, 3.258917647421480E+08, -3.048143568122506E+06,
2459811.500000000, A.D. 2022-Aug-20 00:00:00.0000, 3.660014099400879E+07, 3.300141816574597E+08, -3.196798778175920E+06,
2459818.500000000, A.D. 2022-Aug-27 00:00:00.0000, 2.542675046652778E+07, 3.336990179129547E+08, -3.341215712408587E+06,
2459825.500000000, A.D. 2022-Sep-03 00:00:00.0000, 1.422035955506671E+07, 3.369517341310124E+08, -3.481306430038273E+06,
2459832.500000000, A.D. 2022-Sep-10 00:00:00.0000, 2.995901934927598E+06, 3.397780780612660E+08, -3.616992371262655E+06,
2459839.500000000, A.D. 2022-Sep-17 00:00:00.0000, -8.232333399475949E+06, 3.421840439163862E+08, -3.748203658477589E+06,
2459846.500000000, A.D. 2022-Sep-24 00:00:00.0000, -1.945067462739629E+07, 3.441758357810335E+08, -3.874878458215207E+06,
2459853.500000000, A.D. 2022-Oct-01 00:00:00.0000, -3.064603939186973E+07, 3.457598347267730E+08, -3.996962426548123E+06,
2459860.500000000, A.D. 2022-Oct-08 00:00:00.0000, -4.180590668943861E+07, 3.469425698290492E+08, -4.114408231203854E+06,
2459867.500000000, A.D. 2022-Oct-15 00:00:00.0000, -5.291828945935079E+07, 3.477306939825594E+08, -4.227174965726808E+06,
2459874.500000000, A.D. 2022-Oct-22 00:00:00.0000, -6.397171018147453E+07, 3.481309625445763E+08, -4.335227391962767E+06,
2459881.500000000, A.D. 2022-Oct-29 00:00:00.0000, -7.495517708746448E+07, 3.481502119368184E+08, -4.438535449173972E+06,
2459888.500000000, A.D. 2022-Nov-05 00:00:00.0000, -8.585815896971783E+07, 3.477953407038102E+08, -4.537073996349394E+06,
2459895.500000000, A.D. 2022-Nov-12 00:00:00.0000, -9.667056060682096E+07, 3.470732940754169E+08, -4.630822503137216E+06,
2459902.500000000, A.D. 2022-Nov-19 00:00:00.0000, -1.073826995596769E+08, 3.459910508696243E+08, -4.719764699737594E+06,
2459909.500000000, A.D. 2022-Nov-26 00:00:00.0000, -1.179852840991969E+08, 3.445556121456097E+08, -4.803888240359247E+06,
2459916.500000000, A.D. 2022-Dec-03 00:00:00.0000, -1.284693921110138E+08, 3.427739914213592E+08, -4.883184394667298E+06,
2459923.500000000, A.D. 2022-Dec-10 00:00:00.0000, -1.388264509330989E+08, 3.406532063165355E+08, -4.957647768233493E+06,
2459930.500000000, A.D. 2022-Dec-17 00:00:00.0000, -1.490482180948344E+08, 3.382002714523603E+08, -5.027276054719523E+06,
2459937.500000000, A.D. 2022-Dec-24 00:00:00.0000, -1.591267628348480E+08, 3.354221924129396E+08, -5.092069833666325E+06,
2459944.500000000, A.D. 2022-Dec-31 00:00:00.0000, -1.690544480214896E+08, 3.323259607581035E+08, -5.152032436388865E+06,
2459951.500000000, A.D. 2023-Jan-07 00:00:00.0000, -1.788239123313557E+08, 3.289185509444278E+08, -5.207169811179161E+06,
2459958.500000000, A.D. 2023-Jan-14 00:00:00.0000, -1.884280546281501E+08, 3.252069195582204E+08, -5.257490165806219E+06,
2459965.500000000, A.D. 2023-Jan-21 00:00:00.0000, -1.978600211548598E+08, 3.211980036023624E+08, -5.303003586372018E+06,
2459972.500000000, A.D. 2023-Jan-28 00:00:00.0000, -2.071131918384992E+08, 3.168987175552692E+08, -5.343721982806578E+06,
2459979.500000000, A.D. 2023-Feb-04 00:00:00.0000, -2.161811658923660E+08, 3.123159521561950E+08, -5.379659093107194E+06,
2459986.500000000, A.D. 2023-Feb-11 00:00:00.0000, -2.250577484861252E+08, 3.074565746645493E+08, -5.410830397066087E+06,
2459993.500000000, A.D. 2023-Feb-18 00:00:00.0000, -2.337369385195203E+08, 3.023274297159183E+08, -5.437253000096962E+06,
2460000.500000000, A.D. 2023-Feb-25 00:00:00.0000, -2.422129172108663E+08, 2.969353405650626E+08, -5.458945523509473E+06,
2460007.500000000, A.D. 2023-Mar-04 00:00:00.0000, -2.504800373725680E+08, 2.912871106939418E+08, -5.475928008244649E+06,
2460014.500000000, A.D. 2023-Mar-11 00:00:00.0000, -2.585328133192668E+08, 2.853895257498782E+08, -5.488221833896935E+06,
2460021.500000000, A.D. 2023-Mar-18 00:00:00.0000, -2.663659113360506E+08, 2.792493557329127E+08, -5.495849660643727E+06,
2460028.500000000, A.D. 2023-Mar-25 00:00:00.0000, -2.739741404789167E+08, 2.728733573570018E+08, -5.498835415867180E+06,
2460035.500000000, A.D. 2023-Apr-01 00:00:00.0000, -2.813524432600427E+08, 2.662682769535065E+08, -5.497204331587911E+06,
2460042.500000000, A.D. 2023-Apr-08 00:00:00.0000, -2.884958868128559E+08, 2.594408551207334E+08, -5.490982875682920E+06,
2460049.500000000, A.D. 2023-Apr-15 00:00:00.0000, -2.953996568556603E+08, 2.523978319979778E+08, -5.480198452855647E+06,
2460056.500000000, A.D. 2023-Apr-22 00:00:00.0000, -3.020590526219219E+08, 2.451459500996443E+08, -5.464879290319800E+06,
2460063.500000000, A.D. 2023-Apr-29 00:00:00.0000, -3.084694799966407E+08, 2.376919569439104E+08, -5.445054573533103E+06,
2460070.500000000, A.D. 2023-May-06 00:00:00.0000, -3.146264446030135E+08, 2.300426092390969E+08, -5.420754524095729E+06,
2460077.500000000, A.D. 2023-May-13 00:00:00.0000, -3.205255458061731E+08, 2.222046777231041E+08, -5.392010403157935E+06,
2460084.500000000, A.D. 2023-May-20 00:00:00.0000, -3.261624713920325E+08, 2.141849521572872E+08, -5.358854502008513E+06,
2460091.500000000, A.D. 2023-May-27 00:00:00.0000, -3.315329927225483E+08, 2.059902464418711E+08, -5.321320140407026E+06,
2460098.500000000, A.D. 2023-Jun-03 00:00:00.0000, -3.366329603050472E+08, 1.976274038792839E+08, -5.279441676444590E+06,
2460105.500000000, A.D. 2023-Jun-10 00:00:00.0000, -3.414582997462831E+08, 1.891033025733923E+08, -5.233254531749099E+06,
2460112.500000000, A.D. 2023-Jun-17 00:00:00.0000, -3.460050079967912E+08, 1.804248609060644E+08, -5.182795245400392E+06,
2460119.500000000, A.D. 2023-Jun-24 00:00:00.0000, -3.502691495615420E+08, 1.715990431479318E+08, -5.128101581488304E+06,
2460126.500000000, A.D. 2023-Jul-01 00:00:00.0000, -3.542468524219271E+08, 1.626328660327428E+08, -5.069212645920366E+06,
2460133.500000000, A.D. 2023-Jul-08 00:00:00.0000, -3.579343053450207E+08, 1.535334071192607E+08, -5.006168791960284E+06,
2460140.500000000, A.D. 2023-Jul-15 00:00:00.0000, -3.613277578636093E+08, 1.443078121158539E+08, -4.939011429170221E+06,
2460147.500000000, A.D. 2023-Jul-22 00:00:00.0000, -3.644235194111056E+08, 1.349633001411934E+08, -4.867783143440425E+06,
$$EOE